{"type": "FeatureCollection", "features": [ {"type": "Feature", "properties": {"norad_id": 41469, "name": "IRNSS-1G", "group": "gnss", "lat": -4.579736596097276, "lon": -2.101931980625669, "alt_km": 35789.171423287225, "timestamp": "2025-12-10T09:57:44.942616+00:00", "meta": {"OBJECT_NAME": "IRNSS-1G", "OBJECT_ID": "2016-027A", "EPOCH": "2025-12-09T19:19:22.857888", "MEAN_MOTION": 1.00250781, "ECCENTRICITY": 0.0004633, "INCLINATION": 4.7258, "RA_OF_ASC_NODE": 102.1755, "ARG_OF_PERICENTER": 335.5211, "MEAN_ANOMALY": 60.1492, "EPHEMERIS_TYPE": 0, "CLASSIFICATION_TYPE": "U", "NORAD_CAT_ID": 41469, "ELEMENT_SET_NO": 999, "REV_AT_EPOCH": 3528, "BSTAR": 0, "MEAN_MOTION_DOT": -3.35e-06, "MEAN_MOTION_DDOT": 0}, "tle": {"line1": "1 41469U 16027A   25343.80512567 -.00000335  00000+0  00000+0 0  9991", "line2": "2 41469   4.7258 102.1755 0004633 335.5211  60.1492  1.00250781 35283"}}, "geometry": {"type": "Point", "coordinates": [-2.101931980625669, -4.579736596097276]}}, {"type": "Feature", "properties": {"norad_id": 41549, "name": "GSAT0211 (GALILEO 14)", "group": "gnss", "lat": -41.595541971216086, "lon": -171.26733077568554, "alt_km": 23222.84849334545, "timestamp": "2025-12-10T09:57:44.942628+00:00", "meta": {"OBJECT_NAME": "GSAT0211 (GALILEO 14)", "OBJECT_ID": "2016-030A", "EPOCH": "2025-12-07T13:40:58.264320", "MEAN_MOTION": 1.70472997, "ECCENTRICITY": 0.00040128, "INCLINATION": 55.154, "RA_OF_ASC_NODE": 226.9659, "ARG_OF_PERICENTER": 14.4678, "MEAN_ANOMALY": 345.6377, "EPHEMERIS_TYPE": 0, "CLASSIFICATION_TYPE": "U", "NORAD_CAT_ID": 41549, "ELEMENT_SET_NO": 999, "REV_AT_EPOCH": 5940, "BSTAR": 0, "MEAN_MOTION_DOT": 2.3e-07, "MEAN_MOTION_DDOT": 0}, "tle": {"line1": "1 41549U 16030A   25341.57011880  .00000023  00000+0  00000+0 0  9991", "line2": "2 41549  55.1540 226.9659 0004012  14.4678 345.6377  1.70472997 59400"}}, "geometry": {"type": "Point", "coordinates": [-171.26733077568554, -41.595541971216086]}}, {"type": "Feature", "properties": {"norad_id": 41550, "name": "GSAT0210 (GALILEO 13)", "group": "gnss", "lat": 25.71659853750823, "lon": 27.30611659255025, "alt_km": 23219.562226863225, "timestamp": "2025-12-10T09:57:44.942639+00:00", "meta": {"OBJECT_NAME": "GSAT0210 (GALILEO 13)", "OBJECT_ID": "2016-030B", "EPOCH": "2025-12-09T00:00:58.854816", "MEAN_MOTION": 1.70473614, "ECCENTRICITY": 0.0001366, "INCLINATION": 55.1527, "RA_OF_ASC_NODE": 226.9246, "ARG_OF_PERICENTER": 244.5421, "MEAN_ANOMALY": 115.531, "EPHEMERIS_TYPE": 0, "CLASSIFICATION_TYPE": "U", "NORAD_CAT_ID": 41550, "ELEMENT_SET_NO": 999, "REV_AT_EPOCH": 5942, "BSTAR": 0, "MEAN_MOTION_DOT": 1.3e-07, "MEAN_MOTION_DDOT": 0}, "tle": {"line1": "1 41550U 16030B   25343.00068119  .00000013  00000+0  00000+0 0  9999", "line2": "2 41550  55.1527 226.9246 0001366 244.5421 115.5310  1.70473614 59420"}}, "geometry": {"type": "Point", "coordinates": [27.30611659255025, 25.71659853750823]}}, {"type": "Feature", "properties": {"norad_id": 41586, "name": "BEIDOU-2 G7 (C03)", "group": "gnss", "lat": -1.7524192806603718, "lon": -20.769024921409997, "alt_km": 35787.24388600594, "timestamp": "2025-12-10T09:57:44.942651+00:00", "meta": {"OBJECT_NAME": "BEIDOU-2 G7 (C03)", "OBJECT_ID": "2016-037A", "EPOCH": "2025-12-09T22:02:38.709312", "MEAN_MOTION": 1.00268364, "ECCENTRICITY": 0.0004348, "INCLINATION": 1.7501, "RA_OF_ASC_NODE": 67.7122, "ARG_OF_PERICENTER": 1.1282, "MEAN_ANOMALY": 91.1817, "EPHEMERIS_TYPE": 0, "CLASSIFICATION_TYPE": "U", "NORAD_CAT_ID": 41586, "ELEMENT_SET_NO": 999, "REV_AT_EPOCH": 499, "BSTAR": 0, "MEAN_MOTION_DOT": -3.5e-06, "MEAN_MOTION_DDOT": 0}, "tle": {"line1": "1 41586U 16037A   25343.91850358 -.00000350  00000+0  00000+0 0  9994", "line2": "2 41586   1.7501  67.7122 0004348   1.1282  91.1817  1.00268364  4997"}}, "geometry": {"type": "Point", "coordinates": [-20.769024921409997, -1.7524192806603718]}}, {"type": "Feature", "properties": {"norad_id": 41589, "name": "EUTELSAT 117 WEST B (WAAS/PRN 131)", "group": "gnss", "lat": -0.014116655956160568, "lon": 111.83403427861731, "alt_km": 35784.71376123692, "timestamp": "2025-12-10T09:57:44.942664+00:00", "meta": {"OBJECT_NAME": "EUTELSAT 117 WEST B (WAAS/PRN 131)", "OBJECT_ID": "2016-038B", "EPOCH": "2025-12-09T14:43:38.546112", "MEAN_MOTION": 1.00271212, "ECCENTRICITY": 3.69e-05, "INCLINATION": 0.0013, "RA_OF_ASC_NODE": 169.4503, "ARG_OF_PERICENTER": 286.2539, "MEAN_ANOMALY": 86.8165, "EPHEMERIS_TYPE": 0, "CLASSIFICATION_TYPE": "U", "NORAD_CAT_ID": 41589, "ELEMENT_SET_NO": 999, "REV_AT_EPOCH": 3476, "BSTAR": 0, "MEAN_MOTION_DOT": -9e-08, "MEAN_MOTION_DDOT": 0}, "tle": {"line1": "1 41589U 16038B   25343.61364058 -.00000009  00000+0  00000+0 0  9993", "line2": "2 41589   0.0013 169.4503 0000369 286.2539  86.8165  1.00271212 34764"}}, "geometry": {"type": "Point", "coordinates": [111.83403427861731, -0.014116655956160568]}}, {"type": "Feature", "properties": {"norad_id": 41859, "name": "GSAT0207 (GALILEO 15)", "group": "gnss", "lat": -18.545285276111837, "lon": 92.91785587298176, "alt_km": 23218.39022895942, "timestamp": "2025-12-10T09:57:44.942675+00:00", "meta": {"OBJECT_NAME": "GSAT0207 (GALILEO 15)", "OBJECT_ID": "2016-069A", "EPOCH": "2025-12-09T20:46:23.343744", "MEAN_MOTION": 1.70474355, "ECCENTRICITY": 0.0002194, "INCLINATION": 55.3802, "RA_OF_ASC_NODE": 106.3298, "ARG_OF_PERICENTER": 323.9491, "MEAN_ANOMALY": 36.0038, "EPHEMERIS_TYPE": 0, "CLASSIFICATION_TYPE": "U", "NORAD_CAT_ID": 41859, "ELEMENT_SET_NO": 999, "REV_AT_EPOCH": 5617, "BSTAR": 0, "MEAN_MOTION_DOT": 1.1e-07, "MEAN_MOTION_DDOT": 0}, "tle": {"line1": "1 41859U 16069A   25343.86554796  .00000011  00000+0  00000+0 0  9996", "line2": "2 41859  55.3802 106.3298 0002194 323.9491  36.0038  1.70474355 56173"}}, "geometry": {"type": "Point", "coordinates": [92.91785587298176, -18.545285276111837]}}, {"type": "Feature", "properties": {"norad_id": 41860, "name": "GSAT0212 (GALILEO 16)", "group": "gnss", "lat": 49.31357813473025, "lon": 159.69800964748316, "alt_km": 23211.137439396036, "timestamp": "2025-12-10T09:57:44.942686+00:00", "meta": {"OBJECT_NAME": "GSAT0212 (GALILEO 16)", "OBJECT_ID": "2016-069B", "EPOCH": "2025-12-09T03:10:58.927872", "MEAN_MOTION": 1.70474546, "ECCENTRICITY": 0.00021877, "INCLINATION": 55.3778, "RA_OF_ASC_NODE": 106.3455, "ARG_OF_PERICENTER": 30.0277, "MEAN_ANOMALY": 329.9496, "EPHEMERIS_TYPE": 0, "CLASSIFICATION_TYPE": "U", "NORAD_CAT_ID": 41860, "ELEMENT_SET_NO": 999, "REV_AT_EPOCH": 5641, "BSTAR": 0, "MEAN_MOTION_DOT": 1e-07, "MEAN_MOTION_DDOT": 0}, "tle": {"line1": "1 41860U 16069B   25343.13262648  .00000010  00000+0  00000+0 0  9999", "line2": "2 41860  55.3778 106.3455 0002187  30.0277 329.9496  1.70474546 56413"}}, "geometry": {"type": "Point", "coordinates": [159.69800964748316, 49.31357813473025]}}, {"type": "Feature", "properties": {"norad_id": 41861, "name": "GSAT0213 (GALILEO 17)", "group": "gnss", "lat": -17.552767432096942, "lon": -61.083572239029024, "alt_km": 23223.621621154354, "timestamp": "2025-12-10T09:57:44.942701+00:00", "meta": {"OBJECT_NAME": "GSAT0213 (GALILEO 17)", "OBJECT_ID": "2016-069C", "EPOCH": "2025-12-08T21:55:35.814144", "MEAN_MOTION": 1.70474823, "ECCENTRICITY": 0.00022753, "INCLINATION": 55.38, "RA_OF_ASC_NODE": 106.3592, "ARG_OF_PERICENTER": 283.5203, "MEAN_ANOMALY": 76.4183, "EPHEMERIS_TYPE": 0, "CLASSIFICATION_TYPE": "U", "NORAD_CAT_ID": 41861, "ELEMENT_SET_NO": 999, "REV_AT_EPOCH": 5627, "BSTAR": 0, "MEAN_MOTION_DOT": 1e-07, "MEAN_MOTION_DDOT": 0}, "tle": {"line1": "1 41861U 16069C   25342.91360896  .00000010  00000+0  00000+0 0  9999", "line2": "2 41861  55.3800 106.3592 0002275 283.5203  76.4183  1.70474823 56273"}}, "geometry": {"type": "Point", "coordinates": [-61.083572239029024, -17.552767432096942]}}, {"type": "Feature", "properties": {"norad_id": 41862, "name": "GSAT0214 (GALILEO 18)", "group": "gnss", "lat": 49.77791915099187, "lon": -128.3923137821793, "alt_km": 23219.934124461004, "timestamp": "2025-12-10T09:57:44.942712+00:00", "meta": {"OBJECT_NAME": "GSAT0214 (GALILEO 18)", "OBJECT_ID": "2016-069D", "EPOCH": "2025-12-07T21:16:28.160256", "MEAN_MOTION": 1.70474622, "ECCENTRICITY": 0.00012492, "INCLINATION": 55.3777, "RA_OF_ASC_NODE": 106.3805, "ARG_OF_PERICENTER": 290.0949, "MEAN_ANOMALY": 69.8506, "EPHEMERIS_TYPE": 0, "CLASSIFICATION_TYPE": "U", "NORAD_CAT_ID": 41862, "ELEMENT_SET_NO": 999, "REV_AT_EPOCH": 5638, "BSTAR": 0, "MEAN_MOTION_DOT": 8e-08, "MEAN_MOTION_DDOT": 0}, "tle": {"line1": "1 41862U 16069D   25341.88643704  .00000008  00000+0  00000+0 0  9994", "line2": "2 41862  55.3777 106.3805 0001249 290.0949  69.8506  1.70474622 56388"}}, "geometry": {"type": "Point", "coordinates": [-128.3923137821793, 49.77791915099187]}}, {"type": "Feature", "properties": {"norad_id": 42709, "name": "SES-15 (WAAS/PRN 133)", "group": "gnss", "lat": 0.03552077985010677, "lon": 99.64528306530352, "alt_km": 35789.40077129064, "timestamp": "2025-12-10T09:57:44.942724+00:00", "meta": {"OBJECT_NAME": "SES-15 (WAAS/PRN 133)", "OBJECT_ID": "2017-026A", "EPOCH": "2025-12-10T03:48:02.551104", "MEAN_MOTION": 1.00266446, "ECCENTRICITY": 4.6e-05, "INCLINATION": 0.0196, "RA_OF_ASC_NODE": 348.6915, "ARG_OF_PERICENTER": 309.3217, "MEAN_ANOMALY": 68.9589, "EPHEMERIS_TYPE": 0, "CLASSIFICATION_TYPE": "U", "NORAD_CAT_ID": 42709, "ELEMENT_SET_NO": 999, "REV_AT_EPOCH": 553, "BSTAR": 0, "MEAN_MOTION_DOT": 6.4e-07, "MEAN_MOTION_DDOT": 0}, "tle": {"line1": "1 42709U 17026A   25344.15836286  .00000064  00000+0  00000+0 0  9993", "line2": "2 42709   0.0196 348.6915 0000460 309.3217  68.9589  1.00266446  5538"}}, "geometry": {"type": "Point", "coordinates": [99.64528306530352, 0.03552077985010677]}}]}